NORAD_CAT_ID,OBJECT_NAME,OBJECT_TYPE,EPOCH,MEAN_MOTION,ECCENTRICITY,INCLINATION,RA_OF_ASC_NODE,ARG_OF_PERICENTER,MEAN_ANOMALY,BSTAR,MEAN_MOTION_DOT,MEAN_MOTION_DDOT,TLE_LINE0,TLE_LINE1,TLE_LINE2,SEMIMAJOR_AXIS,PERIOD,APOGEE,PERIGEE,DECAYED
52664.0,STARLINK-4070,PAYLOAD,2022-06-14 22:00:00,15.57293139,0.0001517,53.2172,162.4076,41.9861,64.4882,-0.010507,-0.00714921,0.0,0 STARLINK-4070,1 52664U 22053J   22165.91667824 -.00714921  00000-0 -10507-1 0  9994,2 52664  53.2172 162.4076 0001517  41.9861  64.4882 15.57293139  5073,6773.632,92.468,396.524,394.469,0.0
52664.0,STARLINK-4070,PAYLOAD,2022-06-15 14:00:01,15.56275155,0.0001357,53.2171,159.1878,59.9354,184.9328,-0.010957,-0.00717346,0.0,0 STARLINK-4070,1 52664U 22053J   22166.58334491 -.00717346  00000-0 -10957-1 0  9992,2 52664  53.2171 159.1878 0001357  59.9354 184.9328 15.56275155  1305,6776.585,92.529,399.37,397.531,0.0
52664.0,STARLINK-4070,PAYLOAD,2022-06-15 22:00:00,15.55761631,0.000132,53.2172,157.5773,53.4689,259.68,-0.01107,-0.00711514,0.0,0 STARLINK-4070,1 52664U 22053J   22166.91667824 -.00711514  00000-0 -11070-1 0  9996,2 52664  53.2172 157.5773 0001320  53.4689 259.6800 15.55761631  5220,6778.0769999999975,92.559,400.836,399.047,0.0
52664.0,STARLINK-4070,PAYLOAD,2022-06-16 02:00:01,15.55501242,0.0001629,53.2169,156.7748,45.0964,121.963,-0.011026,-0.00702705,0.0,0 STARLINK-4070,1 52664U 22053J   22167.08334491 -.00702705  00000-0 -11026-1 0  9999,2 52664  53.2169 156.7748 0001629  45.0964 121.9630 15.55501242  1301,6778.833000000001,92.575,401.802,399.594,0.0
52664.0,STARLINK-4070,PAYLOAD,2022-06-19 14:00:01,15.50216961,0.0001184,53.2174,139.9632,72.7487,231.0011,-0.0077272999999999,-0.00421171,0.0,0 STARLINK-4070,1 52664U 22053J   22170.58334491 -.00421171  00000-0 -77273-2 0  9990,2 52664  53.2174 139.9632 0001184  72.7487 231.0011 15.50216961  1307,6794.229,92.89,416.899,415.29,0.0
52664.0,STARLINK-4070,PAYLOAD,2022-06-19 22:00:00,15.4988406,0.0001446,53.2175,138.3686,53.4337,311.4456,5.8159e-05,2.85e-05,0.0,0 STARLINK-4070,1 52664U 22053J   22170.91667824  .00002850  00000-0  58159-4 0  9997,2 52664  53.2175 138.3686 0001446  53.4337 311.4456 15.49884060  5850,6795.2019999999975,92.91,418.05,416.084,0.0
52664.0,STARLINK-4070,PAYLOAD,2022-06-20 06:00:00,15.49897396,0.0001543,53.2154,136.7857,51.2895,14.5762,0.00039795,0.00022208,0.0,0 STARLINK-4070,1 52664U 22053J   22171.25001157  .00022208  00000-0  39795-3 0  9999,2 52664  53.2154 136.7857 0001543  51.2895  14.5762 15.49897396  5905,6795.163000000001,92.909,418.076,415.979,0.0
52664.0,STARLINK-4070,PAYLOAD,2022-06-20 14:00:01,15.49953917,0.0001379,53.2151,135.1913,48.9198,77.8743,-0.0020892,-0.00117549,0.0,0 STARLINK-4070,1 52664U 22053J   22171.58334491 -.00117549  00000-0 -20892-2 0  9997,2 52664  53.2151 135.1913 0001379  48.9198  77.8743 15.49953917  1307,6794.998000000001,92.906,417.8,415.926,0.0
52664.0,STARLINK-4070,PAYLOAD,2022-06-20 20:00:01,15.49854735,0.0001218,53.2152,133.9955,52.2544,30.2609,0.00046643,0.00026081,0.0,0 STARLINK-4070,1 52664U 22053J   22171.83334491  .00026081  00000-0  46643-3 0  9996,2 52664  53.2152 133.9955 0001218  52.2544  30.2609 15.49854735  5996,6795.288000000001,92.912,417.98,416.325,0.0
52664.0,STARLINK-4070,PAYLOAD,2022-06-20 22:00:00,15.49864003,0.0001232,53.2153,133.5976,53.2195,134.5139,0.00029398,0.00016256,0.0,0 STARLINK-4070,1 52664U 22053J   22171.91667824  .00016256  00000-0  29398-3 0  9995,2 52664  53.2153 133.5976 0001232  53.2195 134.5139 15.49864003  1301,6795.261,92.911,417.963,416.288,0.0
52664.0,STARLINK-4070,PAYLOAD,2022-06-21 14:00:01,15.49711394,0.0001491,53.2167,130.4058,58.7361,250.8494,-0.004148,-0.00227762,0.0,0 STARLINK-4070,1 52664U 22053J   22172.58334491 -.00227762  00000-0 -41480-2 0  9993,2 52664  53.2167 130.4058 0001491  58.7361 250.8494 15.49711394  6119,6795.706999999999,92.921,418.585,416.5580000000001,0.0
52664.0,STARLINK-4070,PAYLOAD,2022-06-21 22:00:00,15.49663559,0.0001357,53.2176,128.809,46.729,323.4618,-0.013832,-0.0072128,0.0,0 STARLINK-4070,1 52664U 22053J   22172.91667824 -.00721280  00000-0 -13832-1 0  9992,2 52664  53.2176 128.8090 0001357  46.7290 323.4618 15.49663559  6164,6795.847,92.923,418.634,416.789,0.0
52664.0,STARLINK-4070,PAYLOAD,2022-06-22 14:00:01,15.48643632,0.0001405,53.2173,125.6247,52.3926,77.8577,-0.014352,-0.00721833,0.0,0 STARLINK-4070,1 52664U 22053J   22173.58334491 -.00721833  00000-0 -14352-1 0  9999,2 52664  53.2173 125.6247 0001405  52.3926  77.8577 15.48643632  1307,6798.83,92.985,421.65,419.74,0.0
52664.0,STARLINK-4070,PAYLOAD,2022-06-22 22:00:00,15.48132231,0.0001503,53.2175,124.0338,54.3998,134.9615,-0.01455,-0.00718981,0.0,0 STARLINK-4070,1 52664U 22053J   22173.91667824 -.00718981  00000-0 -14550-1 0  9995,2 52664  53.2175 124.0338 0001503  54.3998 134.9615 15.48132231  6315,6800.3269999999975,93.015,423.214,421.17,0.0
52664.0,STARLINK-4070,PAYLOAD,2022-06-23 14:00:01,15.47115164,0.0001226,53.2175,120.8567,64.8187,240.9244,-0.015202,-0.00724453,0.0,0 STARLINK-4070,1 52664U 22053J   22174.58334491 -.00724453  00000-0 -15202-1 0  9996,2 52664  53.2175 120.8567 0001226  64.8187 240.9244 15.47115164  1306,6803.307,93.076,426.006,424.338,0.0
52664.0,STARLINK-4070,PAYLOAD,2022-06-23 22:00:00,15.46603904,0.0001338,53.2175,119.2697,51.9634,311.0522,-0.015408,-0.00721567,0.0,0 STARLINK-4070,1 52664U 22053J   22174.91667824 -.00721567  00000-0 -15408-1 0  9993,2 52664  53.2175 119.2697 0001338  51.9634 311.0522 15.46603904  6475,6804.806,93.107,427.582,425.761,0.0
52664.0,STARLINK-4070,PAYLOAD,2022-06-24 14:00:01,15.4558239,0.0001406,53.2175,116.0998,51.2123,64.51,-0.015905,-0.00719168,0.0,0 STARLINK-4070,1 52664U 22053J   22175.58334491 -.00719168  00000-0 -15905-1 0  9994,2 52664  53.2175 116.0998 0001406  51.2123  64.5100 15.45582390  1309,6807.804,93.169,430.627,428.712,0.0
52664.0,STARLINK-4070,PAYLOAD,2022-06-24 20:00:01,15.45199394,0.0001404,53.2175,114.9118,48.8347,18.5206,-0.016085,-0.00717878,0.0,0 STARLINK-4070,1 52664U 22053J   22175.83334491 -.00717878  00000-0 -16085-1 0  9998,2 52664  53.2175 114.9118 0001404  48.8347  18.5206 15.45199394  6611,6808.929,93.192,431.75,429.838,0.0
52664.0,STARLINK-4070,PAYLOAD,2022-06-24 22:00:01,15.45071993,0.0001555,53.2176,114.5166,51.1322,120.0883,-0.016166,-0.00718329,0.0,0 STARLINK-4070,1 52664U 22053J   22175.91668981 -.00718329  00000-0 -16166-1 0  9993,2 52664  53.2176 114.5166 0001555  51.1322 120.0883 15.45071993  1303,6809.304,93.2,432.227,430.11,0.0
52664.0,STARLINK-4070,PAYLOAD,2022-06-25 14:00:01,15.44053931,0.0001375,53.2176,111.3537,56.5044,223.6806,-0.016818,-0.00721422,0.0,0 STARLINK-4070,1 52664U 22053J   22176.58334491 -.00721422  00000-0 -16818-1 0  9995,2 52664  53.2176 111.3537 0001375  56.5044 223.6806 15.44053931  1306,6812.295999999999,93.261,435.098,433.225,0.0
52664.0,STARLINK-4070,PAYLOAD,2022-06-25 20:00:01,15.43670431,0.0001544,53.2175,110.1687,53.3235,177.1155,-0.016966,-0.00718576,0.0,0 STARLINK-4070,1 52664U 22053J   22176.83334491 -.00718576  00000-0 -16966-1 0  9993,2 52664  53.2175 110.1687 0001544  53.3235 177.1155 15.43670431  6767,6813.425,93.284,436.342,434.23800000000006,0.0
52664.0,STARLINK-4070,PAYLOAD,2022-06-25 22:00:00,15.4354404,0.0001401,53.2177,109.7745,49.8198,283.9602,-0.017108,-0.00721246,0.0,0 STARLINK-4070,1 52664U 22053J   22176.91667824 -.00721246  00000-0 -17108-1 0  9998,2 52664  53.2177 109.7745 0001401  49.8198 283.9602 15.43544040  1302,6813.795999999999,93.292,436.616,434.707,0.0
52664.0,STARLINK-4070,PAYLOAD,2022-06-26 14:00:01,15.42521868,0.0001399,53.2174,106.6188,46.7215,32.4765,-0.017623,-0.00717933,0.0,0 STARLINK-4070,1 52664U 22053J   22177.58335648 -.00717933  00000-0 -17623-1 0  9998,2 52664  53.2174 106.6188 0001399  46.7215  32.4765 15.42521868  1307,6816.806,93.354,439.625,437.718,0.0
52664.0,STARLINK-4070,PAYLOAD,2022-06-26 20:00:01,15.42139879,0.0001384,53.2175,105.4366,48.1444,339.8642,-0.017853,-0.0071799,0.0,0 STARLINK-4070,1 52664U 22053J   22177.83334491 -.00717990  00000-0 -17853-1 0  9999,2 52664  53.2175 105.4366 0001384  48.1444 339.8642 15.42139879  6925,6817.932,93.377,440.741,438.853,0.0
52664.0,STARLINK-4070,PAYLOAD,2022-06-26 22:00:00,15.4201304,0.0001575999999999,53.2175,105.0433,45.9024,84.9876,-0.017975,-0.00719709,0.0,0 STARLINK-4070,1 52664U 22053J   22177.91667824 -.00719709  00000-0 -17975-1 0  9992,2 52664  53.2175 105.0433 0001576  45.9024  84.9876 15.42013040  1303,6818.306,93.384,441.245,439.096,0.0
52664.0,STARLINK-4070,PAYLOAD,2022-06-27 14:00:01,15.40991809,0.0001435,53.2174,101.8946,58.7296,173.8369,-0.018525,-0.00716964,0.0,0 STARLINK-4070,1 52664U 22053J   22178.58334491 -.00716964  00000-0 -18525-1 0  9999,2 52664  53.2174 101.8946 0001435  58.7296 173.8369 15.40991809  1303,6821.318,93.446,444.162,442.204,0.0
52664.0,STARLINK-4070,PAYLOAD,2022-06-27 20:00:01,15.406097400000002,0.0001539,53.2175,100.7154,54.217,125.9098,-0.018775,-0.00717416,0.0,0 STARLINK-4070,1 52664U 22053J   22178.83335648 -.00717416  00000-0 -18775-1 0  9992,2 52664  53.2175 100.7154 0001539  54.2170 125.9098 15.40609740  7077,6822.446,93.469,445.361,443.261,0.0
52664.0,STARLINK-4070,PAYLOAD,2022-06-27 22:00:00,15.40482577,0.0001419999999999,53.2174,100.323,57.6359,224.8486,-0.018876,-0.0071815,0.0,0 STARLINK-4070,1 52664U 22053J   22178.91667824 -.00718150  00000-0 -18876-1 0  9993,2 52664  53.2174 100.3230 0001420  57.6359 224.8486 15.40482577  1309,6822.821,93.477,445.655,443.717,0.0
52664.0,STARLINK-4070,PAYLOAD,2022-06-28 14:00:01,15.39461543,0.0001262999999999,53.2174,97.1815,52.1605,328.3242,-0.019489,-0.00716855,0.0,0 STARLINK-4070,1 52664U 22053J   22179.58334491 -.00716855  00000-0 -19489-1 0  9999,2 52664  53.2174  97.1815 0001263  52.1605 328.3242 15.39461543  1308,6825.8380000000025,93.539,448.565,446.84,0.0
